SatCatId,ObjectName,LaunchYear,OrbitalPeriod,LaunchMass,StatusCode,Inclination,Status,UcsData,OrbitClassEstimated,LaunchSiteCountry,Owner,UseType,Purpose,LaunchVehicleClass,TLE1,TLE2,MeanMotion,Eccentricity,OrbitClass
56220,LLITED A,2023,90.47,2.0,+,97.34,Active,1,LEO,USA,USA,Commercial,Earth Observation,Falcon,1 56220U 23054AU  24230.24346448  .00916851  36829-3  25777-2 0  9996,2 56220  97.3370 134.0527 0008651 160.5368 199.6238 15.93533168 75922,15.93533168,0.0008651,LEO
56221,IRIS-C,2023,92.38,3.0,+,97.35,Active,1,LEO,USA,Taiwan,Government,Space Science,Falcon,1 56221U 23054AV  24230.26631997  .00141648  00000+0  17823-2 0  9990,2 56221  97.3517 130.8440 0000965 188.6331 171.4909 15.59174923 75706,15.59174923,9.65e-05,LEO
56222,DISCO-1,2023,93.21,1.0,+,97.35,Active,1,LEO,USA,Denmark,Civil,Space Science,Falcon,1 56222U 23054AW  24230.21114644  .00062358  00000+0  13134-2 0  9992,2 56222  97.3507 128.0915 0004587 301.7782  58.3020 15.45044669 75529,15.45044669,0.0004587,LEO
56224,REVELA,2023,93.03,-1.0,+,97.35,Active,0,LEO,USA,Italy,Unknown,Unknown,Unknown,1 56224U 23054AY  24230.18774823  .00072346  00000+0  13746-2 0  9998,2 56224  97.3521 129.2798 0000995 266.1527  93.9610 15.48016854 75594,15.48016854,9.95e-05,LEO
56225,AAC-HSI-SAT1,2023,95.56,-1.0,+,97.46,Active,0,LEO,USA,UK,Unknown,Unknown,Unknown,1 56225U 23054AZ  24229.87667624  .00006254  00000+0  42218-3 0  9995,2 56225  97.4577 116.5563 0008867 270.0432  89.9780 15.06923655 74346,15.06923655,0.0008867,LEO
56226,OUTPOST MISSION 1,2023,94.45,-1.0,+,97.55,Active,0,LEO,USA,USA,Unknown,Unknown,Unknown,1 56226U 23084BK  24229.28156283  .00028725  00000+0  11634-2 0  9992,2 56226  97.5460 348.8387 0008654 155.7172 204.4474 15.24597879 65313,15.24597879,0.0008654,LEO
56227,SKYKRAFT-3B,2023,93.43,-1.0,+,97.54,Active,0,LEO,USA,Australia,Unknown,Unknown,Unknown,1 56227U 23084BL  24230.53146758  .00115198  00000+0  26552-2 0  9995,2 56227  97.5400 353.4073 0005150 153.3841 206.7671 15.42135497 65720,15.42135497,0.000515,LEO
56228,SKYKRAFT-3C,2023,93.89,-1.0,+,97.54,Active,0,LEO,USA,Australia,Unknown,Unknown,Unknown,1 56228U 23084BM  24230.50738125  .00075218  00000+0  22549-2 0  9998,2 56228  97.5430 351.8046 0007178 149.6046 210.5614 15.34177879 65612,15.34177879,0.0007178,LEO
56232,FENGYUN 3G,2023,92.66,-1.0,+,49.99,Active,0,LEO,PRC,China,Unknown,Unknown,Unknown,1 56232U 23055A   24230.48203806  .00063723  00000+0  10032-2 0  9993,2 56232  49.9949 194.4516 0034583 305.7152  54.0599 15.52244418 76067,15.52244418,0.0034583,LEO
56287,STARLINK-30107,2023,95.84,750.0,+,43.0,Active,1,LEO,USA,USA,Commercial,Communications,Falcon,1 56287U 23056B   24229.25480029  .00027829  00000+0  20655-2 0  9990,2 56287  42.9968  70.0306 0000296 264.9912  95.0896 15.02563503 74260,15.02563503,2.96e-05,LEO
56288,STARLINK-30106,2023,95.84,750.0,+,43.0,Active,1,LEO,USA,USA,Commercial,Communications,Falcon,1 56288U 23056C   24230.55105219  .00002778  00000+0  22065-3 0  9995,2 56288  43.0032  62.5757 0001655 273.3242  86.7411 15.02538279 73813,15.02538279,0.0001655,LEO
56289,STARLINK-30095,2023,95.84,750.0,+,43.01,Active,1,LEO,USA,USA,Commercial,Communications,Falcon,1 56289U 23056D   24230.51502673  .00001064  00000+0  93730-4 0  9992,2 56289  42.9985  37.0001 0000783  35.6849 324.4046 15.02557021 74117,15.02557021,7.83e-05,LEO
56290,STARLINK-30103,2023,95.84,750.0,+,43.0,Active,1,LEO,USA,USA,Commercial,Communications,Falcon,1 56290U 23056E   24230.54770692  .00002691  00000+0  21410-3 0  9997,2 56290  43.0043  62.5487 0001651 249.2409 110.8257 15.02551387 73824,15.02551387,0.0001651,LEO
56291,STARLINK-30113,2023,95.84,750.0,+,43.0,Active,1,LEO,USA,USA,Commercial,Communications,Falcon,1 56291U 23056F   24230.55436831  .00011450  00000+0  86073-3 0  9992,2 56291  43.0017  62.5897 0001420 260.5597  99.5085 15.02561417 73826,15.02561417,0.000142,LEO
56292,STARLINK-30098,2023,95.84,750.0,+,43.0,Active,1,LEO,USA,USA,Commercial,Communications,Falcon,1 56292U 23056G   24230.54438076  .00000707  00000+0  67400-4 0  9992,2 56292  42.9981  62.5083 0000921 272.4229  87.6508 15.02542590 73819,15.0254259,9.21e-05,LEO
56293,STARLINK-30090,2023,95.84,750.0,+,43.0,Active,1,LEO,USA,USA,Commercial,Communications,Falcon,1 56293U 23056H   24229.93954166 -.00000743  00000+0 -39918-4 0  9992,2 56293  43.0036  66.5544 0001185 305.0169  55.0562 15.02555218 73717,15.02555218,0.0001185,LEO
56294,STARLINK-30049,2023,95.84,750.0,+,43.0,Active,1,LEO,USA,USA,Commercial,Communications,Falcon,1 56294U 23056J   24230.53451887 -.00003118  00000+0 -21585-3 0  9992,2 56294  43.0052  63.2232 0001817 275.7842  84.2793 15.02529224 73805,15.02529224,0.0001817,LEO
56295,STARLINK-30083,2023,95.84,750.0,+,43.0,Active,1,LEO,USA,USA,Commercial,Communications,Falcon,1 56295U 23056K   24229.79709107  .00000120  00000+0  23944-4 0  9990,2 56295  43.0029  41.0552 0001295 277.1363  82.9332 15.02539645 74592,15.02539645,0.0001295,LEO
56296,STARLINK-30089,2023,95.84,750.0,+,43.0,Active,1,LEO,USA,USA,Commercial,Communications,Falcon,1 56296U 23056L   24229.79733786  .00011032  00000+0  82991-3 0  9991,2 56296  43.0037  28.0233 0002252 249.5295 110.5305 15.02560988 74743,15.02560988,0.0002252,LEO
56297,STARLINK-30086,2023,95.84,750.0,+,43.0,Active,1,LEO,USA,USA,Commercial,Communications,Falcon,1 56297U 23056M   24230.51452186  .00001742  00000+0  14392-3 0  9993,2 56297  43.0019  63.0749 0000715 287.3050  72.7714 15.02545106 73811,15.02545106,7.15e-05,LEO
56298,STARLINK-30109,2023,95.84,750.0,+,43.0,Active,1,LEO,USA,USA,Commercial,Communications,Falcon,1 56298U 23056N   24229.25811693 -.00000645  00000+0 -32705-4 0  9997,2 56298  43.0003  69.9921 0000855 299.3614  60.7143 15.02531011 73628,15.02531011,8.55e-05,LEO
56299,STARLINK-30108,2023,95.84,750.0,+,43.0,Active,1,LEO,USA,USA,Commercial,Communications,Falcon,1 56299U 23056P   24229.95644241  .00001940  00000+0  15864-3 0  9991,2 56299  43.0022  53.6347 0001481 283.0387  77.0290 15.02545444 73860,15.02545444,0.0001481,LEO
56300,STARLINK-30104,2023,95.84,750.0,+,43.0,Active,1,LEO,USA,USA,Commercial,Communications,Falcon,1 56300U 23056Q   24230.54104154 -.00014784  00000+0 -10808-2 0  9999,2 56300  43.0014  62.5004 0001277 284.5122  75.5579 15.02565991 73816,15.02565991,0.0001277,LEO
56301,STARLINK-30101,2023,95.84,750.0,+,43.0,Active,1,LEO,USA,USA,Commercial,Communications,Falcon,1 56301U 23056R   24229.24146793  .00003116  00000+0  24557-3 0  9992,2 56301  43.0013  69.9276 0000875 265.7471  94.3271 15.02545644 73629,15.02545644,8.75e-05,LEO
56302,STARLINK-30111,2023,95.84,750.0,+,43.0,Active,1,LEO,USA,USA,Commercial,Communications,Falcon,1 56302U 23056S   24230.56435447  .00002077  00000+0  16876-3 0  9997,2 56302  42.9983  62.5886 0000679 254.7609 105.3158 15.02544345 73818,15.02544345,6.79e-05,LEO
56304,STARLINK-30099,2023,95.84,750.0,+,43.0,Active,1,LEO,USA,USA,Commercial,Communications,Falcon,1 56304U 23056U   24229.96271747  .00006526  00000+0  49751-3 0  9993,2 56304  43.0030  65.8052 0002166 254.3657 105.6946 15.02549550 73729,15.0254955,0.0002166,LEO
56305,STARLINK-30094,2023,95.84,750.0,+,43.0,Active,1,LEO,USA,USA,Commercial,Communications,Falcon,1 56305U 23056V   24229.89291827  .00001726  00000+0  14280-3 0  9993,2 56305  43.0055  66.1255 0001142 275.3634  84.7078 15.02535116 73723,15.02535116,0.0001142,LEO
56306,STARLINK-30112,2023,95.84,750.0,+,43.0,Active,1,LEO,USA,USA,Commercial,Communications,Falcon,1 56306U 23056W   24230.56768206  .00009232  00000+0  69734-3 0  9994,2 56306  42.9950  62.6111 0001162 128.2694 231.8252 15.02548785 73828,15.02548785,0.0001162,LEO
56308,POEM-2,2023,96.59,-1.0,+,9.89,Active,0,LEO,India,India,Unknown,Unknown,Unknown,1 56308U 23057A   24229.77678286  .00006600  00000+0  58335-3 0  9997,2 56308   9.8885  74.2859 0022065 165.9206 194.1622 14.90812723 72035,14.90812723,0.0022065,LEO
56309,LUMELITE-4,2023,95.81,-1.0,+,9.99,Active,0,LEO,India,Singapore,Unknown,Unknown,Unknown,1 56309U 23057B   24228.86546642  .00018820  00000+0  12985-2 0  9994,2 56309   9.9943  32.8425 0007381  23.6132 336.4421 15.03100459 72335,15.03100459,0.0007381,LEO
56310,TELEOS-2,2023,96.22,-1.0,+,9.99,Active,0,LEO,India,Singapore,Unknown,Unknown,Unknown,1 56310U 23057C   24226.77799525  .00022200  00000+0  18369-2 0  9993,2 56310   9.9884  60.1223 0001195 279.7917  80.2162 14.96503302 71917,14.96503302,0.0001195,LEO
56317,STARLINK-6038,2023,95.92,300.0,+,97.65,Active,1,LEO,USA,USA,Commercial,Communications,Falcon,1 56317U 23058A   24229.99926530 -.00000299  00000+0 -18635-4 0  9990,2 56317  97.6538 229.9025 0004614  90.9325 269.2427 15.01270884 72168,15.01270884,0.0004614,LEO
56318,STARLINK-5954,2023,95.92,300.0,+,97.65,Active,1,LEO,USA,USA,Commercial,Communications,Falcon,1 56318U 23058B   24229.99555802  .00004284  00000+0  33771-3 0  9994,2 56318  97.6515 229.9020 0004251  69.0313 291.1366 15.01280502 72164,15.01280502,0.0004251,LEO
56319,STARLINK-6039,2023,95.92,300.0,+,97.65,Active,1,LEO,USA,USA,Commercial,Communications,Falcon,1 56319U 23058C   24230.46027285  .00000713  00000+0  60081-4 0  9996,2 56319  97.6580 230.3641 0003638  85.3961 274.7679 15.01277740 72232,15.0127774,0.0003638,LEO
56320,STARLINK-5988,2023,95.92,300.0,+,97.65,Active,1,LEO,USA,USA,Commercial,Communications,Falcon,1 56320U 23058D   24230.46607201  .00000417  00000+0  37084-4 0  9998,2 56320  97.6552 230.3629 0004258  87.0863 273.0848 15.01266828 72233,15.01266828,0.0004258,LEO
56321,STARLINK-5876,2023,95.92,300.0,+,97.65,Active,1,LEO,USA,USA,Commercial,Communications,Falcon,1 56321U 23058E   24230.45470930 -.00017390  00000+0 -13527-2 0  9999,2 56321  97.6487 230.3620 0001541  98.1572 261.9827 15.01259020 72211,15.0125902,0.0001541,LEO
56322,STARLINK-6033,2023,95.92,300.0,+,97.65,Active,1,LEO,USA,USA,Commercial,Communications,Falcon,1 56322U 23058F   24229.99741104  .00004659  00000+0  36686-3 0  9995,2 56322  97.6521 229.9020 0005282  83.1673 277.0152 15.01275806 72164,15.01275806,0.0005282,LEO
